QIANFAN-81              
1 63167U 25046J   25274.94346990  .00000263  00000+0  38947-3 0  9998
2 63167  88.9818 327.2984 0013255 335.7530  24.2996 13.50982785 37790
QIANFAN-82              
1 63168U 25046K   25274.97647416  .00000229  00000+0  33633-3 0  9998
2 63168  88.9818 327.3386 0011688 345.6067  14.4749 13.50970633 37786
QIANFAN-83              
1 63169U 25046L   25274.92124181  .00000300  00000+0  37421-3 0  9992
2 63169  88.9819 327.2615 0012583 333.1398  26.9106 13.61958136 37822
QIANFAN-84              
1 63170U 25046M   25274.93091667  .00000217  00000+0  31677-3 0  9991
2 63170  88.9819 327.4762 0014502 339.9363  20.1217 13.50983412 37707
QIANFAN-85              
1 63171U 25046N   25273.44580510  .00000223  00000+0  32688-3 0  9997
2 63171  88.9820 327.5010 0012124 348.9073  11.1809 13.50980190 37575
QIANFAN-86              
1 63172U 25046P   25274.93534549  .00000244  00000+0  35941-3 0  9992
2 63172  88.9820 327.2082 0010058 350.8957   9.2010 13.50970367 37857
QIANFAN-87              
1 63173U 25046Q   25274.90654478  .00000231  00000+0  33947-3 0  9994
2 63173  88.9816 327.3255 0010571 344.6094  15.4734 13.50976926 37780
QIANFAN-88              
1 63174U 25046R   25274.92300845  .00000262  00000+0  38745-3 0  9998
2 63174  88.9819 327.2766 0011247 352.9714   7.1277 13.50970395 37810
